[{"OBJECT_NAME":"STARLINK-36927","OBJECT_ID":"2026-037K","EPOCH":"2026-03-09T22:00:01.999584","MEAN_MOTION":15.82021134,"ECCENTRICITY":0.00017695,"INCLINATION":42.9985,"RA_OF_ASC_NODE":197.0574,"ARG_OF_PERICENTER":280.4751,"MEAN_ANOMALY":256.7629,"EPHEMERIS_TYPE":0,"CLASSIFICATION_TYPE":"U","NORAD_CAT_ID":67941,"ELEMENT_SET_NO":999,"REV_AT_EPOCH":323,"BSTAR":1.812678e-5,"MEAN_MOTION_DOT":3.286e-5,"MEAN_MOTION_DDOT":0},{"OBJECT_NAME":"BREEZE-M DEB [TANK]","OBJECT_ID":"2015-012C","EPOCH":"2026-03-09T18:49:47.101152","MEAN_MOTION":5.00813824,"ECCENTRICITY":0.53710453,"INCLINATION":49.4211,"RA_OF_ASC_NODE":228.2778,"ARG_OF_PERICENTER":232.8415,"MEAN_ANOMALY":65.1456,"EPHEMERIS_TYPE":0,"CLASSIFICATION_TYPE":"U","NORAD_CAT_ID":40507,"ELEMENT_SET_NO":999,"REV_AT_EPOCH":19433,"BSTAR":0.00088883033,"MEAN_MOTION_DOT":4.642e-5,"MEAN_MOTION_DDOT":0}]
